# From MPC106342
C/1995 O1 (Hale-Bopp),e,89.0197,283.2976,130.5409,179.0920,0.0004112,0.99494608,0.0000,03/29.7369/1997,2000,g -2.0,4.0
# From NK 1615
P/1996 R2 (Lagerkvist),e,2.6003,40.0297,333.3120,3.775031,0.1343765,0.31406531,93.5715,01/08.0/2021,2000,g 11.5,4.0
# From MPC 30063
P/1997 B1 (Kobayashi),e,12.3395,328.8835,183.3558,8.569075,0.0392919,0.76012607,342.5231,01/08.0/2021,2000,g 15.0,2.0
# From MPC 75703
P/1998 VS24 (LINEAR),e,5.0254,159.0317,244.6644,4.529335,0.1022474,0.24202714,111.0409,01/08.0/2021,2000,g 13.0,2.0
# From NK 731
P/1999 RO28 (LONEOS),e,7.5668,137.8839,231.2676,3.426756,0.1553743,0.67208745,87.3006,01/08.0/2021,2000,g 20.0,2.0
# From MPC 75704
P/1999 XN120 (Catalina),e,5.0297,285.2962,161.8880,4.179029,0.1153695,0.21030483,150.8476,01/08.0/2021,2000,g 13.5,2.0
# From NK 744
P/2000 R2 (LINEAR),e,11.6848,160.2928,176.5202,3.466194,0.1527301,0.53157748,87.1431,01/08.0/2021,2000,g 18.0,4.0
# From MPC 43019
P/2001 H5 (NEAT),e,8.3671,328.6842,224.8663,6.098088,0.0654506,0.59862272,124.8673,01/08.0/2021,2000,g 12.0,4.0
# From MPC 75704
P/2001 Q6 (NEAT),e,56.9038,22.1352,42.9415,7.951306,0.0439589,0.82284013,309.5777,01/08.0/2021,2000,g 13.5,4.0
# From MPC 47727
P/2002 EJ57 (LINEAR),e,4.9761,330.3277,167.3667,6.472780,0.0598505,0.59270060,55.9368,01/08.0/2021,2000,g 12.5,4.0
# From MPC109588
P/2002 T6 (NEAT-LINEAR),e,10.8337,206.4122,219.6152,7.672922,0.0463728,0.56017573,300.0700,01/08.0/2021,2000,g 10.5,4.0
# From MPC 75007
C/2002 VQ94 (LINEAR),e,70.5745,35.0200,100.1599,185.7501,0.0003893,0.96321048,2.1255,01/08.0/2021,2000,g  9.5,2.0
# From MPC 50354
P/2003 F2 (NEAT),e,11.6046,359.0659,191.9533,6.492119,0.0595833,0.54227332,25.1810,01/08.0/2021,2000,g 16.5,2.0
# From MPC 50139
P/2003 QX29 (NEAT),e,11.3898,264.5852,37.4205,8.031645,0.0433009,0.47298975,287.6879,01/08.0/2021,2000,g  8.5,4.0
# From MPC105235
P/2003 T12 (SOHO),e,11.0173,174.5736,219.7670,2.586145,0.2369872,0.76965865,58.3309,01/08.0/2021,2000,g 17.0,4.0
# From MPC 82312
P/2004 A1 (LONEOS),e,10.5516,124.8470,21.3964,7.956827,0.0439131,0.30934399,263.1461,01/08.0/2021,2000,g  6.5,4.0
# From MPC 54558
P/2004 DO29 (Spacewatch-LINEAR),e,14.5318,147.3778,40.7149,7.283226,0.0501439,0.44128524,297.6374,01/08.0/2021,2000,g 13.5,2.0
# From MPC 54823
P/2004 FY140 (LINEAR),e,2.1348,326.7604,242.4519,4.902001,0.0908121,0.16854113,181.1094,01/08.0/2021,2000,g 12.5,2.0
# From MPC 53304
P/2004 R3 (LINEAR-NEAT),e,12.8246,305.4811,38.4933,4.797028,0.0938093,0.26130261,335.4854,01/08.0/2021,2000,g 14.5,4.0
# From MPC 55521
P/2004 V3 (Siding Spring),e,50.4347,356.1175,322.3099,7.143463,0.0516227,0.44633893,305.9008,01/08.0/2021,2000,g 11.5,4.0
# From MPC 75705
P/2004 V5 (LINEAR-Hill),e,19.3444,47.7731,87.7680,7.976643,0.0437496,0.44353364,254.3697,01/08.0/2021,2000,g  8.0,4.0
# From MPEC 2020-X09
P/2005 CR16,e,9.3937,139.9818,313.1070,6.627934,0.0577613,0.51011314,350.3752,01/08.0/2021,2000,g 12.5,4.0
# From MPC 54164
P/2005 E1 (Tubbiolo),e,4.2637,335.5704,194.1119,7.038033,0.0527870,0.37516523,307.4817,01/08.0/2021,2000,g 10.0,4.0
# From MPC 54823
P/2005 GF8 (LONEOS),e,1.1932,314.8306,285.0196,5.856098,0.0695491,0.51799211,32.4619,01/08.0/2021,2000,g 11.5,4.0
# From MPC 79019
P/2005 J1 (McNaught),e,31.7658,268.8048,338.9593,3.569928,0.1461218,0.56982863,119.5752,01/08.0/2021,2000,g 16.5,4.0
# From MPC 74246
P/2005 L1 (McNaught),e,7.7386,138.2478,149.7046,3.975260,0.1243528,0.20939164,322.8623,01/08.0/2021,2000,g  9.5,4.0
# From MPC 75706
P/2005 S2 (Skiff),e,3.1357,161.1987,229.1530,8.016914,0.0434203,0.19699694,232.7089,01/08.0/2021,2000,g  7.5,4.0
# From MPC 75706
P/2005 SB216 (LONEOS),e,24.0752,1.2274,83.3867,7.128105,0.0517896,0.46339755,264.8262,01/08.0/2021,2000,g 12.0,2.0
# From MPC 55717
P/2005 T2 (Christensen),e,8.2927,260.1575,58.8139,3.845977,0.1306755,0.41639530,35.8872,01/08.0/2021,2000,g 14.5,4.0
# From MPC 73461
P/2005 T3 (Read),e,6.2244,27.7357,6.9701,7.578737,0.0472399,0.17404681,263.0509,01/08.0/2021,2000,g  9.0,4.0
# From MPC 73461
P/2005 T4 (SWAN),e,160.1878,25.6879,41.5921,9.361039,0.0344126,0.92988111,192.0310,01/08.0/2021,2000,g 15.0,4.0
# From MPC 75706
P/2005 T5 (Broughton),e,21.3543,57.0060,304.5321,7.291233,0.0500614,0.55206717,278.9715,01/08.0/2021,2000,g 11.0,4.0
# From MPC 56954
P/2005 W3 (Kowalski),e,16.4186,210.0881,200.6962,6.330903,0.0618736,0.54345505,344.1740,01/08.0/2021,2000,g 12.0,4.0
# From MPC 75706
P/2005 Y2 (McNaught),e,19.0871,94.5003,194.0068,6.386904,0.0610616,0.47068427,4.8500,01/08.0/2021,2000,g  9.0,4.0
# From MPC 56954
P/2006 F4 (Spacewatch),e,12.4064,183.8635,31.1256,3.525968,0.1488629,0.33950098,78.0639,01/08.0/2021,2000,g 15.0,4.0
# From MPC 75707
P/2006 HR30 (Siding Spring),e,31.8295,309.9033,117.2888,7.811286,0.0451461,0.84207176,232.0245,01/08.0/2021,2000,g 11.0,4.0
# From MPC 75707
P/2006 S4 (Christensen),e,39.5344,36.0923,305.1474,6.312272,0.0621478,0.50806493,336.9012,01/08.0/2021,2000,g 11.0,4.0
# From MPC 75707
P/2007 A2 (Christensen),e,26.4877,300.9065,186.7536,6.325356,0.0619550,0.55759918,317.2281,01/08.0/2021,2000,g 13.5,4.0
# From MPEC 2021-A66
P/2007 B1 (Christensen),e,12.3775,77.6744,46.6924,5.818882,0.0702174,0.58088849,358.8418,01/08.0/2021,2000,g 15.0,4.0
# From MPC 75707
P/2007 C2 (Catalina),e,8.6536,275.6044,179.9286,6.993511,0.0532919,0.47021177,258.4986,01/08.0/2021,2000,g 10.0,4.0
# From MPC 84315
C/2007 D1 (LINEAR),e,41.5016,171.1844,340.0869,1519,0.0000166,0.99418808,0.0000,06/09.4472/2007,2000,g  3.5,4.0
# From MPC 82314
P/2007 K2 (Gibbs),e,7.6356,188.6461,347.4638,7.263207,0.0503514,0.68329361,250.0591,01/08.0/2021,2000,g 14.0,4.0
# From MPC 60925
P/2007 Q2 (Gilmore),e,10.2026,172.1599,162.7757,5.654159,0.0733081,0.67021496,3.0810,01/08.0/2021,2000,g 16.0,4.0
# From MPC 75708
P/2007 R4 (Garradd),e,20.2234,87.2221,282.6426,5.928727,0.0682750,0.67004382,337.1394,01/08.0/2021,2000,g 14.5,4.0
# From MPC 73462
P/2007 S1 (Zhao),e,5.9633,141.3774,245.7185,3.813395,0.1323538,0.33960341,275.4886,01/08.0/2021,2000,g 13.0,4.0
# From MPC 61994
P/2007 T2 (Kowalski),e,9.7457,3.3748,359.6360,3.047141,0.1852957,0.78526330,166.6256,01/08.0/2021,2000,g 18.5,4.0
# From MPC 75708
P/2008 CL94 (Lemmon),e,8.3471,33.3295,80.5064,6.161165,0.0644480,0.12029347,343.4613,01/08.0/2021,2000,g  8.0,4.0
# From MPC 75709
P/2008 L2 (Hill),e,25.8576,218.0057,141.2128,6.028675,0.0665842,0.61306076,303.1892,01/08.0/2021,2000,g 12.5,4.0
# From MPC 64114
P/2008 O3 (Boattini),e,32.2535,47.5960,341.0887,8.222849,0.0417994,0.69514063,192.8241,01/08.0/2021,2000,g 13.0,4.0
# From MPC 75709
P/2008 QP20 (LINEAR-Hill),e,7.5220,322.0754,75.6035,3.552969,0.1471692,0.49218204,307.1474,01/08.0/2021,2000,g 15.5,4.0
# From MPC 66204
P/2008 WZ96 (LINEAR),e,7.1115,56.4726,341.8777,3.489989,0.1511708,0.47026751,325.1259,01/08.0/2021,2000,g 13.5,4.0
# From MPC 75710
P/2008 Y3 (McNaught),e,38.7635,262.7922,238.2572,8.046116,0.0431842,0.44551048,189.8695,01/08.0/2021,2000,g  8.5,4.0
# From MPC 75710
P/2009 B1 (Boattini),e,22.2192,297.0915,128.8909,6.736118,0.0563754,0.63467757,247.1246,01/08.0/2021,2000,g 13.0,4.0
# From MPC 66466
C/2009 G1 (STEREO),e,108.7479,120.4325,175.3949,428.5017,0.0001111,0.99735093,0.0000,04/15.3022/2009,2000,g  9.0,4.0
# From MPC 75710
P/2009 O3 (Hill),e,16.2661,183.7133,154.3941,7.770333,0.0455035,0.68758810,193.4064,01/08.0/2021,2000,g 12.5,4.0
# From MPC 98557
P/2009 Q1 (Hill),e,14.5055,173.9593,157.1254,5.520309,0.0759905,0.49480443,321.9174,01/08.0/2021,2000,g 11.5,4.0
# From MPC 68902
P/2009 Q5 (McNaught),e,40.9762,160.2654,209.0201,7.437693,0.0485900,0.60874754,201.4074,01/08.0/2021,2000,g 10.0,4.0
# From MPC112389
P/2009 T2 (La Sagra),e,27.5494,215.7963,216.4139,7.724175,0.0459120,0.76512772,185.0117,01/08.0/2021,2000,g 14.0,4.0
# From MPC 75711
P/2009 U4 (McNaught),e,10.0806,55.3557,259.8389,5.083957,0.0859808,0.67612600,357.9276,01/08.0/2021,2000,g 14.0,4.0
# From MPC105235
P/2009 WX51 (Catalina),e,9.5955,31.6829,118.0735,3.080571,0.1822876,0.74030274,9.5950,01/08.0/2021,2000,g 19.0,2.0
# From MPC 74247
P/2009 Y2 (Kowalski),e,29.9297,262.0242,172.1653,6.549270,0.0588051,0.63589013,233.1512,01/08.0/2021,2000,g 13.0,4.0
# From MPC 75711
P/2010 A3 (Hill),e,14.8583,64.0388,41.9819,6.076017,0.0658075,0.73331933,259.6080,01/08.0/2021,2000,g 14.0,4.0
# From MPC 72851
P/2010 A5 (LINEAR),e,5.7978,277.6633,307.0891,5.083154,0.0860011,0.66500165,335.7053,01/08.0/2021,2000,g 13.0,4.0
# From MPC105235
P/2010 B2 (WISE),e,8.9307,0.8478,155.9184,3.109794,0.1797242,0.47986773,6.1887,01/08.0/2021,2000,g 17.0,4.0
# From MPC 75008
P/2010 C1 (Scotti),e,9.1281,141.8861,3.7583,7.102990,0.0520646,0.25864013,211.9775,01/08.0/2021,2000,g  9.5,4.0
# From MPC 75008
P/2010 D2 (WISE),e,57.0847,319.8919,120.0833,6.715922,0.0566299,0.45087736,225.3446,01/08.0/2021,2000,g 16.0,4.0
# From MPC 75009
P/2010 E2 (Jarnac),e,15.4037,177.8247,8.3693,8.638203,0.0388212,0.72016859,152.6784,01/08.0/2021,2000,g 14.0,4.0
# From MPC 72851
P/2010 H2 (Vales),e,14.2732,64.2044,128.1796,3.834225,0.1312767,0.19570456,159.7592,01/08.0/2021,2000,g  6.0,4.0
# From MPC 70361
P/2010 H3 (SOHO),e,23.0878,77.1017,26.1382,3.059174,0.1842035,0.98548499,0.0000,02/07.9649/2021,2000,g 20.0,2.0
# From MPC 73463
P/2010 H4 (Scotti),e,2.3188,44.7456,179.5576,6.590056,0.0582600,0.26747648,224.5949,01/08.0/2021,2000,g 10.5,4.0
# From MPC 74637
P/2010 H5 (Scotti),e,14.0663,24.8083,175.2664,7.159368,0.0514508,0.15356964,202.0510,01/08.0/2021,2000,g 13.0,2.0
# From MPC 98558
P/2010 J3 (McMillan),e,13.2888,106.4108,157.5882,8.970744,0.0366827,0.72719010,138.8067,01/08.0/2021,2000,g 11.0,4.0
# From MPC 84315
P/2010 JC81 (WISE),e,38.7254,30.8435,12.4397,8.110835,0.0426683,0.77675707,151.5470,01/08.0/2021,2000,g  9.0,4.0
# From MPC 74248
P/2010 T2 (PANSTARRS),e,7.9105,59.0094,353.6208,5.517390,0.0760508,0.32148843,270.8552,01/08.0/2021,2000,g 11.5,4.0
# From MPC 98558
P/2010 TO20 (LINEAR-Grauer),e,2.4791,43.2969,266.7468,5.829493,0.0700258,0.05466791,312.3622,01/08.0/2021,2000,g  9.0,4.0
# From MPC 82316
